[
  {
    "COMMENT": "GENERATED VIA SPACETRACK.ORG API",
    "ORIGINATOR": "18 SPCS",
    "NORAD_CAT_ID": "46984",
    "OBJECT_NAME": "S6 MICHAEL FREILICH",
    "OBJECT_TYPE": "PAYLOAD",
    "CLASSIFICATION_TYPE": "U",
    "INTLDES": "20086A",
    "EPOCH": "2021-11-04 12:06:00",
    "EPOCH_MICROSECONDS": "141984",
    "MEAN_MOTION": "12.80930588",
    "ECCENTRICITY": "0.0007789",
    "INCLINATION": "66.0452",
    "RA_OF_ASC_NODE": "36.2536",
    "ARG_OF_PERICENTER": "263.1633",
    "MEAN_ANOMALY": "96.8492",
    "EPHEMERIS_TYPE": "0",
    "ELEMENT_SET_NO": "999",
    "REV_AT_EPOCH": "4455",
    "BSTAR": "0",
    "MEAN_MOTION_DOT": "-0.00000061",
    "MEAN_MOTION_DDOT": "0",
    "FILE": "3202404",
    "TLE_LINE0": "0 S6 MICHAEL FREILICH",
    "TLE_LINE1": "1 46984U 20086A   21308.50416831 -.00000061  00000-0  00000-0 0  9997",
    "TLE_LINE2": "2 46984  66.0452  36.2536 0007789 263.1633  96.8492 12.80930588 44556",
    "OBJECT_ID": "2020-086A",
    "OBJECT_NUMBER": "46984",
    "SEMIMAJOR_AXIS": "7715.868",
    "PERIOD": "112.418",
    "APOGEE": "1343.743",
    "PERIGEE": "1331.723",
    "DECAYED": "0"
  },
  {
    "COMMENT": "GENERATED VIA SPACETRACK.ORG API",
    "ORIGINATOR": "18 SPCS",
    "NORAD_CAT_ID": "46984",
    "OBJECT_NAME": "S6 MICHAEL FREILICH",
    "OBJECT_TYPE": "PAYLOAD",
    "CLASSIFICATION_TYPE": "U",
    "INTLDES": "20086A",
    "EPOCH": "2021-11-05 08:42:43",
    "EPOCH_MICROSECONDS": "493760",
    "MEAN_MOTION": "12.80930636",
    "ECCENTRICITY": "0.0007797",
    "INCLINATION": "66.0456",
    "RA_OF_ASC_NODE": "34.4703",
    "ARG_OF_PERICENTER": "263.1721",
    "MEAN_ANOMALY": "96.8409",
    "EPHEMERIS_TYPE": "0",
    "ELEMENT_SET_NO": "999",
    "REV_AT_EPOCH": "4466",
    "BSTAR": "0",
    "MEAN_MOTION_DOT": "-0.00000061",
    "MEAN_MOTION_DDOT": "0",
    "FILE": "3203420",
    "TLE_LINE0": "0 S6 MICHAEL FREILICH",
    "TLE_LINE1": "1 46984U 20086A   21309.36300340 -.00000061  00000-0  00000+0 0  9998",
    "TLE_LINE2": "2 46984  66.0456  34.4703 0007797 263.1721  96.8409 12.80930636 44667",
    "OBJECT_ID": "2020-086A",
    "OBJECT_NUMBER": "46984",
    "SEMIMAJOR_AXIS": "7715.868",
    "PERIOD": "112.418",
    "APOGEE": "1343.749",
    "PERIGEE": "1331.717",
    "DECAYED": "0"
  },
  {
    "COMMENT": "GENERATED VIA SPACETRACK.ORG API",
    "ORIGINATOR": "18 SPCS",
    "NORAD_CAT_ID": "46984",
    "OBJECT_NAME": "S6 MICHAEL FREILICH",
    "OBJECT_TYPE": "PAYLOAD",
    "CLASSIFICATION_TYPE": "U",
    "INTLDES": "20086A",
    "EPOCH": "2021-11-05 08:42:43",
    "EPOCH_MICROSECONDS": "493760",
    "MEAN_MOTION": "12.80930636",
    "ECCENTRICITY": "0.0007797",
    "INCLINATION": "66.0456",
    "RA_OF_ASC_NODE": "34.4703",
    "ARG_OF_PERICENTER": "263.1721",
    "MEAN_ANOMALY": "96.8409",
    "EPHEMERIS_TYPE": "0",
    "ELEMENT_SET_NO": "999",
    "REV_AT_EPOCH": "4466",
    "BSTAR": "0",
    "MEAN_MOTION_DOT": "-0.00000061",
    "MEAN_MOTION_DDOT": "0",
    "FILE": "3203969",
    "TLE_LINE0": "0 S6 MICHAEL FREILICH",
    "TLE_LINE1": "1 46984U 20086A   21309.36300340 -.00000061  00000-0  00000-0 0  9999",
    "TLE_LINE2": "2 46984  66.0456  34.4703 0007797 263.1721  96.8409 12.80930636 44667",
    "OBJECT_ID": "2020-086A",
    "OBJECT_NUMBER": "46984",
    "SEMIMAJOR_AXIS": "7715.868",
    "PERIOD": "112.418",
    "APOGEE": "1343.749",
    "PERIGEE": "1331.717",
    "DECAYED": "0"
  },
  {
    "COMMENT": "GENERATED VIA SPACETRACK.ORG API",
    "ORIGINATOR": "18 SPCS",
    "NORAD_CAT_ID": "46984",
    "OBJECT_NAME": "S6 MICHAEL FREILICH",
    "OBJECT_TYPE": "PAYLOAD",
    "CLASSIFICATION_TYPE": "U",
    "INTLDES": "20086A",
    "EPOCH": "2021-11-05 16:12:26",
    "EPOCH_MICROSECONDS": "526528",
    "MEAN_MOTION": "12.80930603",
    "ECCENTRICITY": "0.0007785",
    "INCLINATION": "66.0453",
    "RA_OF_ASC_NODE": "33.8212",
    "ARG_OF_PERICENTER": "263.3433",
    "MEAN_ANOMALY": "96.6691",
    "EPHEMERIS_TYPE": "0",
    "ELEMENT_SET_NO": "999",
    "REV_AT_EPOCH": "4470",
    "BSTAR": "0",
    "MEAN_MOTION_DOT": "-0.00000061",
    "MEAN_MOTION_DDOT": "0",
    "FILE": "3203957",
    "TLE_LINE0": "0 S6 MICHAEL FREILICH",
    "TLE_LINE1": "1 46984U 20086A   21309.67530702 -.00000061  00000-0  00000+0 0  9999",
    "TLE_LINE2": "2 46984  66.0453  33.8212 0007785 263.3433  96.6691 12.80930603 44701",
    "OBJECT_ID": "2020-086A",
    "OBJECT_NUMBER": "46984",
    "SEMIMAJOR_AXIS": "7715.868",
    "PERIOD": "112.418",
    "APOGEE": "1343.740",
    "PERIGEE": "1331.726",
    "DECAYED": "0"
  },
  {
    "COMMENT": "GENERATED VIA SPACETRACK.ORG API",
    "ORIGINATOR": "18 SPCS",
    "NORAD_CAT_ID": "46984",
    "OBJECT_NAME": "S6 MICHAEL FREILICH",
    "OBJECT_TYPE": "PAYLOAD",
    "CLASSIFICATION_TYPE": "U",
    "INTLDES": "20086A",
    "EPOCH": "2021-11-05 16:12:26",
    "EPOCH_MICROSECONDS": "526528",
    "MEAN_MOTION": "12.80930603",
    "ECCENTRICITY": "0.0007785",
    "INCLINATION": "66.0453",
    "RA_OF_ASC_NODE": "33.8212",
    "ARG_OF_PERICENTER": "263.3433",
    "MEAN_ANOMALY": "96.6691",
    "EPHEMERIS_TYPE": "0",
    "ELEMENT_SET_NO": "999",
    "REV_AT_EPOCH": "4470",
    "BSTAR": "0",
    "MEAN_MOTION_DOT": "-0.00000061",
    "MEAN_MOTION_DDOT": "0",
    "FILE": "3203959",
    "TLE_LINE0": "0 S6 MICHAEL FREILICH",
    "TLE_LINE1": "1 46984U 20086A   21309.67530702 -.00000061  00000-0  00000+0 0  9999",
    "TLE_LINE2": "2 46984  66.0453  33.8212 0007785 263.3433  96.6691 12.80930603 44701",
    "OBJECT_ID": "2020-086A",
    "OBJECT_NUMBER": "46984",
    "SEMIMAJOR_AXIS": "7715.868",
    "PERIOD": "112.418",
    "APOGEE": "1343.740",
    "PERIGEE": "1331.726",
    "DECAYED": "0"
  },
  {
    "COMMENT": "GENERATED VIA SPACETRACK.ORG API",
    "ORIGINATOR": "18 SPCS",
    "NORAD_CAT_ID": "46984",
    "OBJECT_NAME": "S6 MICHAEL FREILICH",
    "OBJECT_TYPE": "PAYLOAD",
    "CLASSIFICATION_TYPE": "U",
    "INTLDES": "20086A",
    "EPOCH": "2021-11-05 16:12:26",
    "EPOCH_MICROSECONDS": "526528",
    "MEAN_MOTION": "12.80930603",
    "ECCENTRICITY": "0.0007785",
    "INCLINATION": "66.0453",
    "RA_OF_ASC_NODE": "33.8212",
    "ARG_OF_PERICENTER": "263.3433",
    "MEAN_ANOMALY": "96.6691",
    "EPHEMERIS_TYPE": "0",
    "ELEMENT_SET_NO": "999",
    "REV_AT_EPOCH": "4470",
    "BSTAR": "0",
    "MEAN_MOTION_DOT": "-0.00000061",
    "MEAN_MOTION_DDOT": "0",
    "FILE": "3204412",
    "TLE_LINE0": "0 S6 MICHAEL FREILICH",
    "TLE_LINE1": "1 46984U 20086A   21309.67530702 -.00000061  00000-0  00000-0 0  9990",
    "TLE_LINE2": "2 46984  66.0453  33.8212 0007785 263.3433  96.6691 12.80930603 44701",
    "OBJECT_ID": "2020-086A",
    "OBJECT_NUMBER": "46984",
    "SEMIMAJOR_AXIS": "7715.868",
    "PERIOD": "112.418",
    "APOGEE": "1343.740",
    "PERIGEE": "1331.726",
    "DECAYED": "0"
  },
  {
    "COMMENT": "GENERATED VIA SPACETRACK.ORG API",
    "ORIGINATOR": "18 SPCS",
    "NORAD_CAT_ID": "46984",
    "OBJECT_NAME": "S6 MICHAEL FREILICH",
    "OBJECT_TYPE": "PAYLOAD",
    "CLASSIFICATION_TYPE": "U",
    "INTLDES": "20086A",
    "EPOCH": "2021-11-06 01:34:35",
    "EPOCH_MICROSECONDS": "331744",
    "MEAN_MOTION": "12.80930607",
    "ECCENTRICITY": "0.0007804",
    "INCLINATION": "66.0455",
    "RA_OF_ASC_NODE": "33.0107",
    "ARG_OF_PERICENTER": "263.391",
    "MEAN_ANOMALY": "96.6216",
    "EPHEMERIS_TYPE": "0",
    "ELEMENT_SET_NO": "999",
    "REV_AT_EPOCH": "4475",
    "BSTAR": "0",
    "MEAN_MOTION_DOT": "-0.00000061",
    "MEAN_MOTION_DDOT": "0",
    "FILE": "3205696",
    "TLE_LINE0": "0 S6 MICHAEL FREILICH",
    "TLE_LINE1": "1 46984U 20086A   21310.06568671 -.00000061  00000-0  00000-0 0  9991",
    "TLE_LINE2": "2 46984  66.0455  33.0107 0007804 263.3910  96.6216 12.80930607 44752",
    "OBJECT_ID": "2020-086A",
    "OBJECT_NUMBER": "46984",
    "SEMIMAJOR_AXIS": "7715.868",
    "PERIOD": "112.418",
    "APOGEE": "1343.754",
    "PERIGEE": "1331.711",
    "DECAYED": "0"
  },
  {
    "COMMENT": "GENERATED VIA SPACETRACK.ORG API",
    "ORIGINATOR": "18 SPCS",
    "NORAD_CAT_ID": "46984",
    "OBJECT_NAME": "S6 MICHAEL FREILICH",
    "OBJECT_TYPE": "PAYLOAD",
    "CLASSIFICATION_TYPE": "U",
    "INTLDES": "20086A",
    "EPOCH": "2021-11-06 14:41:35",
    "EPOCH_MICROSECONDS": "647296",
    "MEAN_MOTION": "12.80930571",
    "ECCENTRICITY": "0.0007773",
    "INCLINATION": "66.0454",
    "RA_OF_ASC_NODE": "31.8751",
    "ARG_OF_PERICENTER": "263.3041",
    "MEAN_ANOMALY": "96.708",
    "EPHEMERIS_TYPE": "0",
    "ELEMENT_SET_NO": "999",
    "REV_AT_EPOCH": "4482",
    "BSTAR": "0",
    "MEAN_MOTION_DOT": "-0.00000061",
    "MEAN_MOTION_DDOT": "0",
    "FILE": "3205679",
    "TLE_LINE0": "0 S6 MICHAEL FREILICH",
    "TLE_LINE1": "1 46984U 20086A   21310.61221814 -.00000061  00000-0  00000+0 0  9996",
    "TLE_LINE2": "2 46984  66.0454  31.8751 0007773 263.3041  96.7080 12.80930571 44820",
    "OBJECT_ID": "2020-086A",
    "OBJECT_NUMBER": "46984",
    "SEMIMAJOR_AXIS": "7715.868",
    "PERIOD": "112.418",
    "APOGEE": "1343.730",
    "PERIGEE": "1331.735",
    "DECAYED": "0"
  }
]